{
    "links": {
        "self": "http://www.neowsapp.com/rest/v1/neo/3548892?api_key=iIulBulltgU6a56xZRHN4H3l9WmuAYTsLGpBGhQ2"
    },
    "id": "3548892",
    "neo_reference_id": "3548892",
    "name": "(2010 TN55)",
    "designation": "2010 TN55",
    "nasa_jpl_url": "http://ssd.jpl.nasa.gov/sbdb.cgi?sstr=3548892",
    "absolute_magnitude_h": 26.9,
    "estimated_diameter": {
        "kilometers": {
            "estimated_diameter_min": 0.0110803882,
            "estimated_diameter_max": 0.0247765013
        },
        "meters": {
            "estimated_diameter_min": 11.0803882126,
            "estimated_diameter_max": 24.7765012606
        },
        "miles": {
            "estimated_diameter_min": 0.0068850319,
            "estimated_diameter_max": 0.0153953994
        },
        "feet": {
            "estimated_diameter_min": 36.3529808636,
            "estimated_diameter_max": 81.2877363957
        }
    },
    "is_potentially_hazardous_asteroid": false,
    "close_approach_data": [
        {
            "close_approach_date": "2010-10-10",
            "close_approach_date_full": "2010-Oct-10 22:23",
            "epoch_date_close_approach": 1286749380000,
            "relative_velocity": {
                "kilometers_per_second": "24.6774928095",
                "kilometers_per_hour": "88838.974114137",
                "miles_per_hour": "55201.0836655314"
            },
            "miss_distance": {
                "astronomical": "0.0013076326",
                "lunar": "0.5086690814",
                "kilometers": "195619.051702562",
                "miles": "121552.0422848756"
            },
            "orbiting_body": "Moon"
        },
        {
            "close_approach_date": "2010-10-11",
            "close_approach_date_full": "2010-Oct-11 01:11",
            "epoch_date_close_approach": 1286759460000,
            "relative_velocity": {
                "kilometers_per_second": "25.3917849974",
                "kilometers_per_hour": "91410.4259907941",
                "miles_per_hour": "56798.8838607798"
            },
            "miss_distance": {
                "astronomical": "0.0021853501",
                "lunar": "0.8501011889",
                "kilometers": "326923.720164287",
                "miles": "203140.9799376806"
            },
            "orbiting_body": "Earth"
        }
    ],
    "orbital_data": {
        "orbit_id": "10",
        "orbit_determination_date": "2019-07-17 06:08:58",
        "first_observation_date": "2010-10-13",
        "last_observation_date": "2010-10-16",
        "data_arc_in_days": 3,
        "observations_used": 27,
        "orbit_uncertainty": "8",
        "minimum_orbit_intersection": ".00142485",
        "jupiter_tisserand_invariant": "3.092",
        "epoch_osculation": "2455483.5",
        "eccentricity": ".7861101738319247",
        "semi_major_axis": "2.290416262072963",
        "inclination": ".2571094090397137",
        "ascending_node_longitude": "36.05825709356102",
        "orbital_period": "1266.105964398232",
        "perihelion_distance": ".4898967361473189",
        "perihelion_argument": "242.2800213226415",
        "aphelion_distance": "4.090935787998608",
        "perihelion_time": "2455435.624239046038",
        "mean_anomaly": "13.61282106558757",
        "mean_motion": ".2843363905730469",
        "equinox": "J2000",
        "orbit_class": {
            "orbit_class_type": "APO",
            "orbit_class_description": "Near-Earth asteroid orbits which cross the Earth’s orbit similar to that of 1862 Apollo",
            "orbit_class_range": "a (semi-major axis) > 1.0 AU; q (perihelion) < 1.017 AU"
        }
    },
    "is_sentry_object": false
}